OBJECT_NAME,OBJECT_ID,EPOCH,MEAN_MOTION,ECCENTRICITY,INCLINATION,RA_OF_ASC_NODE,ARG_OF_PERICENTER,MEAN_ANOMALY,EPHEMERIS_TYPE,CLASSIFICATION_TYPE,NORAD_CAT_ID,ELEMENT_SET_NO,REV_AT_EPOCH,BSTAR,MEAN_MOTION_DOT,MEAN_MOTION_DDOT
SWARM B,2013-067A,2026-06-24T06:28:19.228800,15.28588908,.00031193,87.7442,340.1647,82.4137,277.7467,0,U,39451,999,68432,.10812794E-3,.304E-4,0
SWARM A,2013-067B,2026-06-24T06:03:20.037600,15.51070984,.00031186,87.3323,53.6165,96.5991,263.5625,0,U,39452,999,70734,.15218225E-3,.8894E-4,0
SWARM C,2013-067C,2026-06-24T06:03:10.893888,15.51069463,.00031062,87.3323,52.1975,96.6240,263.5375,0,U,39453,999,70730,.1518737E-3,.8876E-4,0
BRITE-CA1 (TORONTO),2014-033L,2026-06-24T07:23:17.396736,14.72685913,.00772647,97.9746,304.1047,253.8059,105.4636,0,U,40020,999,64326,.10924783E-3,.675E-5,0
OCO 2,2014-035A,2026-06-24T07:07:49.891008,14.57116198,.00015036,98.2018,116.4819,83.7914,276.3456,0,U,40059,999,63708,.79892014E-4,.315E-5,0
BRITE-PL2 (HEWELIUSZ),2014-049B,2026-06-24T04:50:49.659360,14.94617811,.00154332,97.9104,287.2561,87.1932,273.1054,0,U,40119,999,64249,.17421257E-3,.1831E-4,0
MMS 1,2015-011A,2026-06-24T08:00:01.999872,0.28380756,.83209484,72.2562,348.7202,167.5627,307.5553,0,U,40482,999,137,0,-.597E-5,0
MMS 2,2015-011B,2026-06-24T08:00:01.999872,0.28380744,.83237432,72.2600,348.7193,167.5659,307.5469,0,U,40483,999,137,0,-.597E-5,0
MMS 3,2015-011C,2026-06-24T08:00:01.999872,0.28380709,.83221182,72.2598,348.7310,167.5733,307.5209,0,U,40484,999,137,0,-.596E-5,0
MMS 4,2015-011D,2026-06-24T08:00:01.999872,0.28380724,.83220199,72.2562,348.7143,167.5832,307.5132,0,U,40485,999,137,0,-.596E-5,0
ASTROSAT,2015-052A,2026-06-24T05:20:19.845888,14.82517603,.00076748,5.9977,104.7013,138.9190,221.1516,0,U,40930,999,58087,.92999543E-4,.1435E-4,0
DAMPE,2015-078A,2026-06-24T07:02:37.034880,15.30800189,.00135338,97.4563,180.7956,55.2834,304.9679,0,U,41173,999,58563,.27899433E-4,.754E-5,0
PISAT,2016-059B,2026-06-24T05:28:20.871840,14.68993723,.00289698,97.8179,175.3783,180.0170,180.1040,0,U,41784,999,52077,.13584187E-3,.754E-5,0
HXMT (HUIYAN),2017-034A,2026-06-24T07:17:55.951584,15.18513789,.00316262,43.0127,143.4097,192.5520,167.4543,0,U,42758,999,49874,.16365163E-3,.3237E-4,0
FLYING LAPTOP,2017-042G,2026-06-24T07:37:38.034048,15.01185182,.00198971,97.4720,330.5773,98.9889,261.3588,0,U,42831,999,48752,.21202642E-3,.2673E-4,0
ZHANGHENG 1-01 (CSES-1),2018-015C,2026-06-24T07:27:15.834816,15.20889116,.00172405,97.6875,341.1101,239.7622,120.1907,0,U,43194,999,46572,.25934325E-3,.5681E-4,0
SALSAT,2020-068K,2026-06-24T06:35:57.895296,15.29885766,.00078015,97.8854,178.7714,277.9982,82.0372,0,U,46495,999,31644,.23162762E-3,.6623E-4,0
IXPE,2021-121A,2026-06-24T06:00:02.000160,15.10303238,.00067927,0.2294,264.6216,184.4364,116.8687,0,U,49954,999,573,.49633277E-3,.9307E-4,0
SMILE,2026-109A,2026-06-07T09:11:54.544416,7.54049028,.3310191,69.9787,209.3069,288.5544,45.7342,0,U,69123,999,248,-.36778157E-3,-.41E-6,0
