SWARM B                 
1 39451U 13067A   26175.26966700  .00003040  00000+0  10813-3 0  9998
2 39451  87.7442 340.1647 0003119  82.4137 277.7467 15.28588908684327
SWARM A                 
1 39452U 13067B   26175.25231525  .00008894  00000+0  15218-3 0  9994
2 39452  87.3323  53.6165 0003118  96.5991 263.5625 15.51070984707349
SWARM C                 
1 39453U 13067C   26175.25220942  .00008876  00000+0  15187-3 0  9991
2 39453  87.3323  52.1975 0003106  96.6240 263.5375 15.51069463707306
BRITE-CA1 (TORONTO)     
1 40020U 14033L   26175.30784024  .00000675  00000+0  10925-3 0  9993
2 40020  97.9746 304.1047 0077264 253.8059 105.4636 14.72685913643269
OCO 2                   
1 40059U 14035A   26175.29710522  .00000315  00000+0  79892-4 0  9997
2 40059  98.2018 116.4819 0001503  83.7914 276.3456 14.57116198637089
BRITE-PL2 (HEWELIUSZ)   
1 40119U 14049B   26175.20196365  .00001831  00000+0  17421-3 0  9996
2 40119  97.9104 287.2561 0015433  87.1932 273.1054 14.94617811642493
MMS 1                   
1 40482U 15011A   26175.33335648 -.00000597  00000+0  00000+0 0  9992
2 40482  72.2562 348.7202 8320948 167.5627 307.5553  0.28380756  1376
MMS 2                   
1 40483U 15011B   26175.33335648 -.00000597  00000+0  00000+0 0  9993
2 40483  72.2600 348.7193 8323743 167.5659 307.5469  0.28380744  1373
MMS 3                   
1 40484U 15011C   26175.33335648 -.00000596  00000+0  00000+0 0  9993
2 40484  72.2598 348.7310 8322118 167.5733 307.5209  0.28380709  1372
MMS 4                   
1 40485U 15011D   26175.33335648 -.00000596  00000+0  00000+0 0  9994
2 40485  72.2562 348.7143 8322019 167.5832 307.5132  0.28380724  1370
ASTROSAT                
1 40930U 15052A   26175.22245192  .00001435  00000+0  93000-4 0  9995
2 40930   5.9977 104.7013 0007674 138.9190 221.1516 14.82517603580879
DAMPE                   
1 41173U 15078A   26175.29348420  .00000754  00000+0  27899-4 0  9994
2 41173  97.4563 180.7956 0013533  55.2834 304.9679 15.30800189585630
PISAT                   
1 41784U 16059B   26175.22801935  .00000754  00000+0  13584-3 0  9995
2 41784  97.8179 175.3783 0028969 180.0170 180.1040 14.68993723520779
HXMT (HUIYAN)           
1 42758U 17034A   26175.30411981  .00003237  00000+0  16365-3 0  9997
2 42758  43.0127 143.4097 0031626 192.5520 167.4543 15.18513789498745
FLYING LAPTOP           
1 42831U 17042G   26175.31780132  .00002673  00000+0  21203-3 0  9996
2 42831  97.4720 330.5773 0019897  98.9889 261.3588 15.01185182487523
ZHANGHENG 1-01 (CSES-1) 
1 43194U 18015C   26175.31059994  .00005681  00000+0  25934-3 0  9992
2 43194  97.6875 341.1101 0017240 239.7622 120.1907 15.20889116465726
SALSAT                  
1 46495U 20068K   26175.27497564  .00006623  00000+0  23163-3 0  9993
2 46495  97.8854 178.7714 0007801 277.9982  82.0372 15.29885766316443
IXPE                    
1 49954U 21121A   26175.25002315  .00009307  00000+0  49633-3 0  9993
2 49954   0.2294 264.6216 0006792 184.4364 116.8687 15.10303238  5739
SMILE                   
1 69123U 26109A   26158.38327019 -.00000041  00000+0 -36778-3 0  9994
2 69123  69.9787 209.3069 3310191 288.5544  45.7342  7.54049028  2480
